start=new Date('2022-02-15T00:00:00.000Z').valueOf();
sats=[{"FILE":"3300727","OBJECT_NAME":"STARLINK-2026","PERIOD":"95.593","SEMIMAJOR_AXIS":"6925.379","OBJECT_TYPE":"PAYLOAD","CENTER_NAME":"EARTH","MEAN_MOTION_DDOT":"0.0000000000000","BSTAR":"0.00004023500000","ECCENTRICITY":"0.00015680","RCS_SIZE":"LARGE","OBJECT_ID":"2021-012AA","LAUNCH_DATE":"2021-02-16","REV_AT_EPOCH":"5634","TLE_LINE1":"1 47644U 21012AA  22045.85038379  .00000318  00000-0  40235-4 0  9997","PERIAPSIS":"546.158","MEAN_MOTION_DOT":"0.00000318","MEAN_ANOMALY":"285.5069","COUNTRY_CODE":"US","TIME_SYSTEM":"UTC","EPHEMERIS_TYPE":"0","EPOCH":"2022-02-14T20:24:33.159456","NORAD_CAT_ID":"47644","CLASSIFICATION_TYPE":"U","ELEMENT_SET_NO":"999","ARG_OF_PERICENTER":"74.6093","INCLINATION":"53.0540","MEAN_ELEMENT_THEORY":"SGP4","GP_ID":"195966073","RA_OF_ASC_NODE":"252.8343","TLE_LINE2":"2 47644  53.0540 252.8343 0001568  74.6093 285.5069 15.06389945 56343","DECAY_DATE":null,"REF_FRAME":"TEME","MEAN_MOTION":"15.06389945","APOAPSIS":"548.330","SITE":"AFETR"},{"ECCENTRICITY":"0.00011030","OBJECT_ID":"2021-012AB","RCS_SIZE":"LARGE","REV_AT_EPOCH":"5672","LAUNCH_DATE":"2021-02-16","TLE_LINE1":"1 47645U 21012AB  22045.78216047 -.00001752  00000-0 -98819-4 0  9996","PERIAPSIS":"546.483","MEAN_MOTION_DOT":"-0.00001752","FILE":"3300727","OBJECT_NAME":"STARLINK-2027","OBJECT_TYPE":"PAYLOAD","CENTER_NAME":"EARTH","SEMIMAJOR_AXIS":"6925.382","PERIOD":"95.593","MEAN_MOTION_DDOT":"0.0000000000000","BSTAR":"-0.00009881900000","ELEMENT_SET_NO":"999","ARG_OF_PERICENTER":"100.4803","MEAN_ELEMENT_THEORY":"SGP4","INCLINATION":"53.0527","TLE_LINE2":"2 47645  53.0527 223.1310 0001103 100.4803 259.6310 15.06388983 56720","RA_OF_ASC_NODE":"223.1310","GP_ID":"195966323","DECAY_DATE":null,"MEAN_MOTION":"15.06388983","REF_FRAME":"TEME","SITE":"AFETR","APOAPSIS":"548.011","MEAN_ANOMALY":"259.6310","EPOCH":"2022-02-14T18:46:18.664608","COUNTRY_CODE":"US","TIME_SYSTEM":"UTC","EPHEMERIS_TYPE":"0","NORAD_CAT_ID":"47645","CLASSIFICATION_TYPE":"U"},{"EPOCH":"2022-02-14T18:27:04.040064","EPHEMERIS_TYPE":"0","COUNTRY_CODE":"US","TIME_SYSTEM":"UTC","MEAN_ANOMALY":"299.5286","NORAD_CAT_ID":"47646","CLASSIFICATION_TYPE":"U","ELEMENT_SET_NO":"999","MEAN_ELEMENT_THEORY":"SGP4","INCLINATION":"53.0548","ARG_OF_PERICENTER":"60.5861","DECAY_DATE":null,"TLE_LINE2":"2 47646  53.0548 188.2046 0001589  60.5861 299.5286 15.06405148 57212","RA_OF_ASC_NODE":"188.2046","GP_ID":"195967574","SITE":"AFETR","APOAPSIS":"548.298","MEAN_MOTION":"15.06405148","REF_FRAME":"TEME","OBJECT_NAME":"STARLINK-2028","FILE":"3300727","MEAN_MOTION_DDOT":"0.0000000000000","OBJECT_TYPE":"PAYLOAD","CENTER_NAME":"EARTH","PERIOD":"95.592","SEMIMAJOR_AXIS":"6925.333","BSTAR":"0.00021042000000","OBJECT_ID":"2021-012AC","RCS_SIZE":"LARGE","ECCENTRICITY":"0.00015890","TLE_LINE1":"1 47646U 21012AC  22045.76879676  .00002854  00000-0  21042-3 0  9993","LAUNCH_DATE":"2021-02-16","REV_AT_EPOCH":"5721","MEAN_MOTION_DOT":"0.00002854","PERIAPSIS":"546.097"},{"BSTAR":"-0.00007432300000","MEAN_MOTION_DDOT":"0.0000000000000","PERIOD":"95.593","SEMIMAJOR_AXIS":"6925.383","OBJECT_TYPE":"PAYLOAD","CENTER_NAME":"EARTH","OBJECT_NAME":"STARLINK-2030","FILE":"3300727","MEAN_MOTION_DOT":"-0.00001388","PERIAPSIS":"546.157","TLE_LINE1":"1 47647U 21012AD  22045.79508452 -.00001388  00000-0 -74323-4 0  9992","LAUNCH_DATE":"2021-02-16","REV_AT_EPOCH":"5633","RCS_SIZE":"LARGE","OBJECT_ID":"2021-012AD","ECCENTRICITY":"0.00015750","CLASSIFICATION_TYPE":"U","NORAD_CAT_ID":"47647","TIME_SYSTEM":"UTC","COUNTRY_CODE":"US","EPHEMERIS_TYPE":"0","EPOCH":"2022-02-14T19:04:55.302528","MEAN_ANOMALY":"295.8164","APOAPSIS":"548.339","SITE":"AFETR","MEAN_MOTION":"15.06388693","REF_FRAME":"TEME","DECAY_DATE":null,"RA_OF_ASC_NODE":"253.0900","GP_ID":"195967824","TLE_LINE2":"2 47647  53.0552 253.0900 0001575  64.2988 295.8164 15.06388693 56335","INCLINATION":"53.0552","MEAN_ELEMENT_THEORY":"SGP4","ARG_OF_PERICENTER":"64.2988","ELEMENT_SET_NO":"999"},{"NORAD_CAT_ID":"47648","CLASSIFICATION_TYPE":"U","MEAN_ANOMALY":"295.6045","EPOCH":"2022-02-14T18:51:39.388320","COUNTRY_CODE":"US","TIME_SYSTEM":"UTC","EPHEMERIS_TYPE":"0","TLE_LINE2":"2 47648  53.0552 233.1271 0001659  64.5115 295.6045 15.06391497 56617","RA_OF_ASC_NODE":"233.1271","GP_ID":"195966574","DECAY_DATE":null,"MEAN_MOTION":"15.06391497","REF_FRAME":"TEME","SITE":"AFETR","APOAPSIS":"548.389","ELEMENT_SET_NO":"999","ARG_OF_PERICENTER":"64.5115","MEAN_ELEMENT_THEORY":"SGP4","INCLINATION":"53.0552","BSTAR":"-0.00000403180000","FILE":"3300727","OBJECT_NAME":"STARLINK-2031","OBJECT_TYPE":"PAYLOAD","CENTER_NAME":"EARTH","PERIOD":"95.593","SEMIMAJOR_AXIS":"6925.375","MEAN_MOTION_DDOT":"0.0000000000000","REV_AT_EPOCH":"5661","LAUNCH_DATE":"2021-02-16","TLE_LINE1":"1 47648U 21012AE  22045.78587255 -.00000342  00000-0 -40318-5 0  9997","PERIAPSIS":"546.091","MEAN_MOTION_DOT":"-0.00000342","ECCENTRICITY":"0.00016590","OBJECT_ID":"2021-012AE","RCS_SIZE":"MEDIUM"},{"OBJECT_NAME":"STARLINK-2032","FILE":"3300727","MEAN_MOTION_DDOT":"0.0000000000000","CENTER_NAME":"EARTH","OBJECT_TYPE":"PAYLOAD","SEMIMAJOR_AXIS":"6925.376","PERIOD":"95.593","BSTAR":"0.00002225800000","OBJECT_ID":"2021-012AF","RCS_SIZE":"LARGE","ECCENTRICITY":"0.00015810","TLE_LINE1":"1 47649U 21012AF  22045.78956295  .00000050  00000-0  22258-4 0  9998","REV_AT_EPOCH":"5661","LAUNCH_DATE":"2021-02-16","MEAN_MOTION_DOT":"0.00000050","PERIAPSIS":"546.146","EPOCH":"2022-02-14T18:56:58.238880","COUNTRY_CODE":"US","TIME_SYSTEM":"UTC","EPHEMERIS_TYPE":"0","MEAN_ANOMALY":"293.9140","NORAD_CAT_ID":"47649","CLASSIFICATION_TYPE":"U","ELEMENT_SET_NO":"999","MEAN_ELEMENT_THEORY":"SGP4","INCLINATION":"53.0542","ARG_OF_PERICENTER":"66.2014","DECAY_DATE":null,"TLE_LINE2":"2 47649  53.0542 233.1095 0001581  66.2014 293.9140 15.06390942 56613","RA_OF_ASC_NODE":"233.1095","GP_ID":"195966824","SITE":"AFETR","APOAPSIS":"548.336","REF_FRAME":"TEME","MEAN_MOTION":"15.06390942"},{"ECCENTRICITY":"0.00016750","OBJECT_ID":"2021-012AG","RCS_SIZE":"LARGE","PERIAPSIS":"546.065","MEAN_MOTION_DOT":"-0.00000844","LAUNCH_DATE":"2021-02-16","REV_AT_EPOCH":"5659","TLE_LINE1":"1 47650U 21012AG  22045.77481851 -.00000844  00000-0 -37760-4 0  9997","CENTER_NAME":"EARTH","OBJECT_TYPE":"PAYLOAD","SEMIMAJOR_AXIS":"6925.360","PERIOD":"95.592","MEAN_MOTION_DDOT":"0.0000000000000","FILE":"3300727","OBJECT_NAME":"STARLINK-2033","BSTAR":"-0.00003776000000","ARG_OF_PERICENTER":"72.9930","MEAN_ELEMENT_THEORY":"SGP4","INCLINATION":"53.0536","ELEMENT_SET_NO":"999","REF_FRAME":"TEME","MEAN_MOTION":"15.06396298","SITE":"AFETR","APOAPSIS":"548.385","TLE_LINE2":"2 47650  53.0536 233.1760 0001675  72.9930 287.1243 15.06396298 56598","RA_OF_ASC_NODE":"233.1760","GP_ID":"195967074","DECAY_DATE":null,"MEAN_ANOMALY":"287.1243","EPOCH":"2022-02-14T18:35:44.319264","EPHEMERIS_TYPE":"0","COUNTRY_CODE":"US","TIME_SYSTEM":"UTC","CLASSIFICATION_TYPE":"U","NORAD_CAT_ID":"47650"},{"BSTAR":"0.00013145000000","PERIOD":"95.593","SEMIMAJOR_AXIS":"6925.371","OBJECT_TYPE":"PAYLOAD","CENTER_NAME":"EARTH","MEAN_MOTION_DDOT":"0.0000000000000","FILE":"3300727","OBJECT_NAME":"STARLINK-2035","PERIAPSIS":"546.204","MEAN_MOTION_DOT":"0.00001677","REV_AT_EPOCH":"5633","LAUNCH_DATE":"2021-02-16","TLE_LINE1":"1 47651U 21012AH  22045.80888615  .00001677  00000-0  13145-3 0  9994","ECCENTRICITY":"0.00014900","RCS_SIZE":"LARGE","OBJECT_ID":"2021-012AH","CLASSIFICATION_TYPE":"U","NORAD_CAT_ID":"47651","MEAN_ANOMALY":"285.0211","COUNTRY_CODE":"US","EPHEMERIS_TYPE":"0","TIME_SYSTEM":"UTC","EPOCH":"2022-02-14T19:24:47.763360","MEAN_MOTION":"15.06392724","REF_FRAME":"TEME","APOAPSIS":"548.268","SITE":"AFETR","GP_ID":"195967324","RA_OF_ASC_NODE":"253.0265","TLE_LINE2":"2 47651  53.0542 253.0265 0001490  75.0943 285.0211 15.06392724 56334","DECAY_DATE":null,"ARG_OF_PERICENTER":"75.0943","INCLINATION":"53.0542","MEAN_ELEMENT_THEORY":"SGP4","ELEMENT_SET_NO":"999"},{"OBJECT_ID":"2021-012AJ","RCS_SIZE":"LARGE","ECCENTRICITY":"0.00017410","MEAN_MOTION_DOT":"0.00001281","PERIAPSIS":"546.031","TLE_LINE1":"1 47652U 21012AJ  22045.83563613  .00001281  00000-0  10488-3 0  9994","REV_AT_EPOCH":"5633","LAUNCH_DATE":"2021-02-16","MEAN_MOTION_DDOT":"0.0000000000000","OBJECT_TYPE":"PAYLOAD","CENTER_NAME":"EARTH","PERIOD":"95.593","SEMIMAJOR_AXIS":"6925.372","OBJECT_NAME":"STARLINK-2036","FILE":"3300727","BSTAR":"0.00010488000000","MEAN_ELEMENT_THEORY":"SGP4","INCLINATION":"53.0536","ARG_OF_PERICENTER":"63.9969","ELEMENT_SET_NO":"999","SITE":"AFETR","APOAPSIS":"548.443","MEAN_MOTION":"15.06392377","REF_FRAME":"TEME","DECAY_DATE":null,"TLE_LINE2":"2 47652  53.0536 252.9051 0001741  63.9969 296.1199 15.06392377 56334","GP_ID":"195966074","RA_OF_ASC_NODE":"252.9051","EPOCH":"2022-02-14T20:03:18.961632","EPHEMERIS_TYPE":"0","COUNTRY_CODE":"US","TIME_SYSTEM":"UTC","MEAN_ANOMALY":"296.1199","CLASSIFICATION_TYPE":"U","NORAD_CAT_ID":"47652"},{"NORAD_CAT_ID":"47653","CLASSIFICATION_TYPE":"U","MEAN_ANOMALY":"296.2596","EPHEMERIS_TYPE":"0","COUNTRY_CODE":"US","TIME_SYSTEM":"UTC","EPOCH":"2022-02-14T18:19:49.126656","GP_ID":"195966324","RA_OF_ASC_NODE":"233.2120","TLE_LINE2":"2 47653  53.0538 233.2120 0001838  63.8581 296.2596 15.06372289 56592","DECAY_DATE":null,"REF_FRAME":"TEME","MEAN_MOTION":"15.06372289","APOAPSIS":"548.571","SITE":"AFETR","ELEMENT_SET_NO":"999","ARG_OF_PERICENTER":"63.8581","INCLINATION":"53.0538","MEAN_ELEMENT_THEORY":"SGP4","BSTAR":"0.00036968000000","FILE":"3300727","OBJECT_NAME":"STARLINK-2037","PERIOD":"95.594","SEMIMAJOR_AXIS":"6925.433","CENTER_NAME":"EARTH","OBJECT_TYPE":"PAYLOAD","MEAN_MOTION_DDOT":"0.0000000000000","REV_AT_EPOCH":"5659","LAUNCH_DATE":"2021-02-16","TLE_LINE1":"1 47653U 21012AK  22045.76376304  .00005225  00000-0  36968-3 0  9999","PERIAPSIS":"546.026","MEAN_MOTION_DOT":"0.00005225","ECCENTRICITY":"0.00018380","RCS_SIZE":"LARGE","OBJECT_ID":"2021-012AK"}];
